{
  "type": "FeatureCollection",
  "features": [
    {
      "type": "Feature",
      "properties": {
        "norad_id": 41773,
        "name": "SKYSAT-C2",
        "group": "resource",
        "lat": -37.367500999805486,
        "lon": 25.777723390628122,
        "alt_km": 458.49864161113146,
        "timestamp": "2025-12-22T05:49:03.139739+00:00",
        "meta_object_name": "SKYSAT-C2",
        "meta_object_id": "2016-058D",
        "meta_epoch": "2025-12-21T14:21:38.666016",
        "meta_mean_motion": 15.37454642,
        "meta_eccentricity": 0.0003235,
        "meta_inclination": 97.0345,
        "meta_ra_of_asc_node": 19.7499,
        "meta_arg_of_pericenter": 8.9758,
        "meta_mean_anomaly": 351.1544,
        "meta_ephemeris_type": 0,
        "meta_classification_type": "U",
        "meta_norad_cat_id": 41773,
        "meta_element_set_no": 999,
        "meta_rev_at_epoch": 51772,
        "meta_bstar": 0.00025432,
        "meta_mean_motion_dot": 9.266e-05,
        "meta_mean_motion_ddot": 0,
        "tle_line1": "1 41773U 16058D   25355.59836419  .00009266  00000+0  25432-3 0  9998",
        "tle_line2": "2 41773  97.0345  19.7499 0003235   8.9758 351.1544 15.37454642517727"
      },
      "geometry": {
        "type": "Point",
        "coordinates": [
          25.777723390628122,
          -37.367500999805486
        ]
      }
    },
    {
      "type": "Feature",
      "properties": {
        "norad_id": 41774,
        "name": "SKYSAT-C3",
        "group": "resource",
        "lat": 35.99703144622485,
        "lon": 24.4789464022628,
        "alt_km": 429.35150297978635,
        "timestamp": "2025-12-22T05:49:03.139749+00:00",
        "meta_object_name": "SKYSAT-C3",
        "meta_object_id": "2016-058E",
        "meta_epoch": "2025-12-21T14:06:49.025088",
        "meta_mean_motion": 15.44688941,
        "meta_eccentricity": 0.0002032,
        "meta_inclination": 96.9286,
        "meta_ra_of_asc_node": 28.9231,
        "meta_arg_of_pericenter": 107.3638,
        "meta_mean_anomaly": 252.7834,
        "meta_ephemeris_type": 0,
        "meta_classification_type": "U",
        "meta_norad_cat_id": 41774,
        "meta_element_set_no": 999,
        "meta_rev_at_epoch": 51862,
        "meta_bstar": 0.00033448,
        "meta_mean_motion_dot": 0.00015534,
        "meta_mean_motion_ddot": 0,
        "tle_line1": "1 41774U 16058E   25355.58806742  .00015534  00000+0  33448-3 0  9995",
        "tle_line2": "2 41774  96.9286  28.9231 0002032 107.3638 252.7834 15.44688941518628"
      },
      "geometry": {
        "type": "Point",
        "coordinates": [
          24.4789464022628,
          35.99703144622485
        ]
      }
    },
    {
      "type": "Feature",
      "properties": {
        "norad_id": 41785,
        "name": "ALSAT 1B",
        "group": "resource",
        "lat": -59.586786476245074,
        "lon": 21.09120702239621,
        "alt_km": 667.1504065512572,
        "timestamp": "2025-12-22T05:49:03.139760+00:00",
        "meta_object_name": "ALSAT 1B",
        "meta_object_id": "2016-059C",
        "meta_epoch": "2025-12-21T20:18:14.946912",
        "meta_mean_motion": 14.72082624,
        "meta_eccentricity": 0.0010821,
        "meta_inclination": 97.7805,
        "meta_ra_of_asc_node": 7.2427,
        "meta_arg_of_pericenter": 78.0088,
        "meta_mean_anomaly": 282.2332,
        "meta_ephemeris_type": 0,
        "meta_classification_type": "U",
        "meta_norad_cat_id": 41785,
        "meta_element_set_no": 999,
        "meta_rev_at_epoch": 49448,
        "meta_bstar": -5.5839e-06,
        "meta_mean_motion_dot": -8.2e-07,
        "meta_mean_motion_ddot": 0,
        "tle_line1": "1 41785U 16059C   25355.84600633 -.00000082  00000+0 -55839-5 0  9992",
        "tle_line2": "2 41785  97.7805   7.2427 0010821  78.0088 282.2332 14.72082624494485"
      },
      "geometry": {
        "type": "Point",
        "coordinates": [
          21.09120702239621,
          -59.586786476245074
        ]
      }
    },
    {
      "type": "Feature",
      "properties": {
        "norad_id": 41787,
        "name": "PATHFINDER 1",
        "group": "resource",
        "lat": -35.76980090681221,
        "lon": 172.8977409072606,
        "alt_km": 696.0741694277458,
        "timestamp": "2025-12-22T05:49:03.139770+00:00",
        "meta_object_name": "PATHFINDER 1",
        "meta_object_id": "2016-059E",
        "meta_epoch": "2025-12-21T12:28:17.461920",
        "meta_mean_motion": 14.67335413,
        "meta_eccentricity": 0.00297956,
        "meta_inclination": 97.8136,
        "meta_ra_of_asc_node": 357.8858,
        "meta_arg_of_pericenter": 54.4562,
        "meta_mean_anomaly": 305.9415,
        "meta_ephemeris_type": 0,
        "meta_classification_type": "U",
        "meta_norad_cat_id": 41787,
        "meta_element_set_no": 999,
        "meta_rev_at_epoch": 49365,
        "meta_bstar": 0.00011888517,
        "meta_mean_motion_dot": 6.29e-06,
        "meta_mean_motion_ddot": 0,
        "tle_line1": "1 41787U 16059E   25355.51964655  .00000629  00000+0  11889-3 0  9995",
        "tle_line2": "2 41787  97.8136 357.8858 0029795  54.4562 305.9415 14.67335413493656"
      },
      "geometry": {
        "type": "Point",
        "coordinates": [
          172.8977409072606,
          -35.76980090681221
        ]
      }
    },
    {
      "type": "Feature",
      "properties": {
        "norad_id": 41790,
        "name": "SCATSAT 1",
        "group": "resource",
        "lat": -64.9831421100475,
        "lon": -144.8415160032408,
        "alt_km": 673.4041626662938,
        "timestamp": "2025-12-22T05:49:03.139780+00:00",
        "meta_object_name": "SCATSAT 1",
        "meta_object_id": "2016-059H",
        "meta_epoch": "2025-12-21T17:20:44.941632",
        "meta_mean_motion": 14.7896339,
        "meta_eccentricity": 0.0056471,
        "meta_inclination": 98.145,
        "meta_ra_of_asc_node": 52.5048,
        "meta_arg_of_pericenter": 99.6908,
        "meta_mean_anomaly": 261.0688,
        "meta_ephemeris_type": 0,
        "meta_classification_type": "U",
        "meta_norad_cat_id": 41790,
        "meta_element_set_no": 999,
        "meta_rev_at_epoch": 7535,
        "meta_bstar": 0.00015689,
        "meta_mean_motion_dot": 1.132e-05,
        "meta_mean_motion_ddot": 0,
        "tle_line1": "1 41790U 16059H   25355.72274238  .00001132  00000+0  15689-3 0  9995",
        "tle_line2": "2 41790  98.1450  52.5048 0056471  99.6908 261.0688 14.78963390 75359"
      },
      "geometry": {
        "type": "Point",
        "coordinates": [
          -144.8415160032408,
          -64.9831421100475
        ]
      }
    },
    {
      "type": "Feature",
      "properties": {
        "norad_id": 41875,
        "name": "GOKTURK 1A",
        "group": "resource",
        "lat": 41.23179126685038,
        "lon": 75.69003908516864,
        "alt_km": 680.3875621183961,
        "timestamp": "2025-12-22T05:49:03.139791+00:00",
        "meta_object_name": "GOKTURK 1A",
        "meta_object_id": "2016-073A",
        "meta_epoch": "2025-12-21T19:20:16.951200",
        "meta_mean_motion": 14.62788306,
        "meta_eccentricity": 0.0001294,
        "meta_inclination": 98.1434,
        "meta_ra_of_asc_node": 248.0501,
        "meta_arg_of_pericenter": 83.0313,
        "meta_mean_anomaly": 277.1036,
        "meta_ephemeris_type": 0,
        "meta_classification_type": "U",
        "meta_norad_cat_id": 41875,
        "meta_element_set_no": 999,
        "meta_rev_at_epoch": 48289,
        "meta_bstar": 4.3328e-05,
        "meta_mean_motion_dot": 1.74e-06,
        "meta_mean_motion_ddot": 0,
        "tle_line1": "1 41875U 16073A   25355.80575175  .00000174  00000+0  43328-4 0  9995",
        "tle_line2": "2 41875  98.1434 248.0501 0001294  83.0313 277.1036 14.62788306482892"
      },
      "geometry": {
        "type": "Point",
        "coordinates": [
          75.69003908516864,
          41.23179126685038
        ]
      }
    },
    {
      "type": "Feature",
      "properties": {
        "norad_id": 41877,
        "name": "RESOURCESAT-2A",
        "group": "resource",
        "lat": -40.11168712006327,
        "lon": -121.43365828806785,
        "alt_km": 825.3808985162859,
        "timestamp": "2025-12-22T05:49:03.139801+00:00",
        "meta_object_name": "RESOURCESAT-2A",
        "meta_object_id": "2016-074A",
        "meta_epoch": "2025-12-21T20:20:13.443648",
        "meta_mean_motion": 14.21602022,
        "meta_eccentricity": 0.0001446,
        "meta_inclination": 98.775,
        "meta_ra_of_asc_node": 65.6503,
        "meta_arg_of_pericenter": 212.5244,
        "meta_mean_anomaly": 147.5844,
        "meta_ephemeris_type": 0,
        "meta_classification_type": "U",
        "meta_norad_cat_id": 41877,
        "meta_element_set_no": 999,
        "meta_rev_at_epoch": 46910,
        "meta_bstar": -4.4952e-05,
        "meta_mean_motion_dot": -1.43e-06,
        "meta_mean_motion_ddot": 0,
        "tle_line1": "1 41877U 16074A   25355.84737782 -.00000143  00000+0 -44952-4 0  9998",
        "tle_line2": "2 41877  98.7750  65.6503 0001446 212.5244 147.5844 14.21602022469108"
      },
      "geometry": {
        "type": "Point",
        "coordinates": [
          -121.43365828806785,
          -40.11168712006327
        ]
      }
    }
  ]
}